[{"OBJECT_NAME":"STARLINK-3541","OBJECT_ID":"2022-022C","EPOCH":"2026-03-09T03:43:39.090720","MEAN_MOTION":15.14066338,"ECCENTRICITY":0.00011202,"INCLINATION":53.2166,"RA_OF_ASC_NODE":19.7963,"ARG_OF_PERICENTER":55.171,"MEAN_ANOMALY":304.9389,"EPHEMERIS_TYPE":0,"CLASSIFICATION_TYPE":"U","NORAD_CAT_ID":51854,"ELEMENT_SET_NO":999,"REV_AT_EPOCH":22296,"BSTAR":0.0020482692,"MEAN_MOTION_DOT":0.00037583,"MEAN_MOTION_DDOT":0},{"OBJECT_NAME":"STARLINK-6324","OBJECT_ID":"2023-099AB","EPOCH":"2026-03-09T22:00:01.999584","MEAN_MOTION":15.14198639,"ECCENTRICITY":0.0001976,"INCLINATION":42.9996,"RA_OF_ASC_NODE":246.7837,"ARG_OF_PERICENTER":262.7011,"MEAN_ANOMALY":33.8485,"EPHEMERIS_TYPE":0,"CLASSIFICATION_TYPE":"U","NORAD_CAT_ID":57353,"ELEMENT_SET_NO":999,"REV_AT_EPOCH":578,"BSTAR":0.0068089875,"MEAN_MOTION_DOT":0.00128608,"MEAN_MOTION_DDOT":0}]
